[{"OBJECT_NAME":"STARLINK-3394","OBJECT_ID":"2022-005Q","EPOCH":"2026-03-09T21:11:35.197728","MEAN_MOTION":15.08841259,"ECCENTRICITY":0.00013467,"INCLINATION":53.2169,"RA_OF_ASC_NODE":288.2551,"ARG_OF_PERICENTER":89.718,"MEAN_ANOMALY":270.3966,"EPHEMERIS_TYPE":0,"CLASSIFICATION_TYPE":"U","NORAD_CAT_ID":51118,"ELEMENT_SET_NO":999,"REV_AT_EPOCH":22890,"BSTAR":3.2003302e-5,"MEAN_MOTION_DOT":2.21e-6,"MEAN_MOTION_DDOT":0},{"OBJECT_NAME":"SL-18 R\/B","OBJECT_ID":"2001-007B","EPOCH":"2026-03-09T23:25:11.323200","MEAN_MOTION":15.07301441,"ECCENTRICITY":0.00085554,"INCLINATION":97.6926,"RA_OF_ASC_NODE":87.6817,"ARG_OF_PERICENTER":353.225,"MEAN_ANOMALY":6.886,"EPHEMERIS_TYPE":0,"CLASSIFICATION_TYPE":"U","NORAD_CAT_ID":26703,"ELEMENT_SET_NO":999,"REV_AT_EPOCH":64619,"BSTAR":0.00021543689,"MEAN_MOTION_DOT":3.19e-5,"MEAN_MOTION_DDOT":0}]
